H1 CPF 01  gfz 2022 12 12 13  8462 tandemx   
H2 1003001  6202 36605    2022 12 12 12 59 42 2022 12 17 00 00 42   120 1 1  0 0 0
H9
10 0 59929  82062.000000  0    2313165.335  -6325330.471  -1459954.487
10 0 59929  82182.000000  0    2188059.782  -6509252.959   -565413.302
10 0 59929  82302.000000  0    2022532.090  -6576931.025    339072.183
10 0 59929  82422.000000  0    1821505.300  -6526457.113   1237586.783
10 0 59929  82542.000000  0    1590547.313  -6358103.227   2114307.654
10 0 59929  82662.000000  0    1335733.344  -6074326.196   2953793.411
10 0 59929  82782.000000  0    1063499.347  -5679729.393   3741263.146
10 0 59929  82902.000000  0     780489.948  -5180981.855   4462862.041
10 0 59929  83022.000000  0     493404.562  -4586697.868   5105907.612
10 0 59929  83142.000000  0     208844.812  -3907278.831   5659113.319
10 0 59929  83262.000000  0     -66831.340  -3154720.732   6112784.139
10 0 59929  83382.000000  0    -327646.664  -2342393.149   6458980.467
10 0 59929  83502.000000  0    -568130.345  -1484796.902   6691649.738
10 0 59929  83622.000000  0    -783429.559   -597303.146   6806727.055
10 0 59929  83742.000000  0    -969405.523    304123.637   6802202.926
10 0 59929  83862.000000  0   -1122712.392   1203213.176   6678156.110
10 0 59929  83982.000000  0   -1240856.998   2083682.547   6436752.000
10 0 59929  84102.000000  0   -1322239.301   2929530.574   6082207.282
10 0 59929  84222.000000  0   -1366173.351   3725329.482   5620720.707
10 0 59929  84342.000000  0   -1372887.434   4456508.882   5060370.300
10 0 59929  84462.000000  0   -1343504.012   5109628.117   4410978.644
10 0 59929  84582.000000  0   -1279999.819   5672631.414   3683944.913
10 0 59929  84702.000000  0   -1185146.284   6135078.510   2892047.804
10 0 59929  84822.000000  0   -1062434.041   6488349.297   2049221.990
10 0 59929  84942.000000  0    -915978.152   6725814.386   1170308.499
10 0 59929  85062.000000  0    -750409.105   6842965.909    270787.581
10 0 59929  85182.000000  0    -570752.289   6837507.869   -633501.009
10 0 59929  85302.000000  0    -382298.606   6709402.477  -1526647.088
10 0 59929  85422.000000  0    -190470.133   6460867.690  -2392960.137
10 0 59929  85542.000000  0       -685.031   6096329.260  -3217250.550
10 0 59929  85662.000000  0     181775.509   5622331.526  -3985098.711
10 0 59929  85782.000000  0     351895.896   5047408.053  -4683107.330
10 0 59929  85902.000000  0     505046.798   4381915.565  -5299131.630
10 0 59929  86022.000000  0     637095.122   3637836.254  -5822483.713
10 0 59929  86142.000000  0     744500.356   2828552.803  -6244108.596
10 0 59929  86262.000000  0     824395.870   1968601.752  -6556729.423
10 0 59929  86382.000000  0     874654.232   1073411.318  -6754961.264
99
